{
    "links": {
        "self": "http://www.neowsapp.com/rest/v1/neo/54057199?api_key=iIulBulltgU6a56xZRHN4H3l9WmuAYTsLGpBGhQ2"
    },
    "id": "54057199",
    "neo_reference_id": "54057199",
    "name": "(2020 TW3)",
    "designation": "2020 TW3",
    "nasa_jpl_url": "http://ssd.jpl.nasa.gov/sbdb.cgi?sstr=54057199",
    "absolute_magnitude_h": 22.503,
    "estimated_diameter": {
        "kilometers": {
            "estimated_diameter_min": 0.0839372964,
            "estimated_diameter_max": 0.1876895006
        },
        "meters": {
            "estimated_diameter_min": 83.937296405,
            "estimated_diameter_max": 187.6895006092
        },
        "miles": {
            "estimated_diameter_min": 0.0521562018,
            "estimated_diameter_max": 0.1166248127
        },
        "feet": {
            "estimated_diameter_min": 275.3848395375,
            "estimated_diameter_max": 615.7792211788
        }
    },
    "is_potentially_hazardous_asteroid": false,
    "close_approach_data": [
        {
            "close_approach_date": "2020-09-21",
            "close_approach_date_full": "2020-Sep-21 05:43",
            "epoch_date_close_approach": 1600666980000,
            "relative_velocity": {
                "kilometers_per_second": "21.7701513788",
                "kilometers_per_hour": "78372.5449635594",
                "miles_per_hour": "48697.6516191628"
            },
            "miss_distance": {
                "astronomical": "0.0965163044",
                "lunar": "37.5448424116",
                "kilometers": "14438633.558511628",
                "miles": "8971750.8676433464"
            },
            "orbiting_body": "Mars"
        },
        {
            "close_approach_date": "2020-10-24",
            "close_approach_date_full": "2020-Oct-24 19:26",
            "epoch_date_close_approach": 1603567560000,
            "relative_velocity": {
                "kilometers_per_second": "21.305301473",
                "kilometers_per_hour": "76699.0853027392",
                "miles_per_hour": "47657.8288649159"
            },
            "miss_distance": {
                "astronomical": "0.0610900298",
                "lunar": "23.7640215922",
                "kilometers": "9138938.336316526",
                "miles": "5678672.9586230188"
            },
            "orbiting_body": "Earth"
        }
    ],
    "orbital_data": {
        "orbit_id": "8",
        "orbit_determination_date": "2020-10-22 09:08:01",
        "first_observation_date": "2020-10-11",
        "last_observation_date": "2020-10-21",
        "data_arc_in_days": 10,
        "observations_used": 54,
        "orbit_uncertainty": "8",
        "minimum_orbit_intersection": ".0214714",
        "jupiter_tisserand_invariant": "3.389",
        "epoch_osculation": "2459136.5",
        "eccentricity": ".6870169380924083",
        "semi_major_axis": "2.095310316749963",
        "inclination": "10.8400661261704",
        "ascending_node_longitude": "28.76043756610908",
        "orbital_period": "1107.824470331196",
        "perihelion_distance": ".6557966385829692",
        "perihelion_argument": "87.36508247145188",
        "aphelion_distance": "3.534823994916956",
        "perihelion_time": "2459193.271872600747",
        "mean_anomaly": "341.5513425785235",
        "mean_motion": ".3249612277406855",
        "equinox": "J2000",
        "orbit_class": {
            "orbit_class_type": "APO",
            "orbit_class_description": "Near-Earth asteroid orbits which cross the Earth’s orbit similar to that of 1862 Apollo",
            "orbit_class_range": "a (semi-major axis) > 1.0 AU; q (perihelion) < 1.017 AU"
        }
    },
    "is_sentry_object": false
}